SKYSAT-C4               
1 41771U 16058B   17346.25159135  .00000611  00000-0  29264-4 0  9997
2 41771  97.3772  56.1311 0001512 120.1643 284.5603 15.22577404 68773
